{"type": "FeatureCollection", "features": [ {"type": "Feature", "properties": {"norad_id": 34077, "name": "IRIDIUM 33 DEB", "group": "iridium-33-debris", "lat": 4.8492427822980195, "lon": -126.68670418177315, "alt_km": 684.2235504450045, "timestamp": "2025-12-07T22:37:43.466289+00:00", "meta": {"OBJECT_NAME": "IRIDIUM 33 DEB", "OBJECT_ID": "1997-051CL", "EPOCH": "2025-12-07T03:53:37.904064", "MEAN_MOTION": 14.64710205, "ECCENTRICITY": 0.00107238, "INCLINATION": 86.3866, "RA_OF_ASC_NODE": 53.9641, "ARG_OF_PERICENTER": 57.0642, "MEAN_ANOMALY": 324.3195, "EPHEMERIS_TYPE": 0, "CLASSIFICATION_TYPE": "U", "NORAD_CAT_ID": 34077, "ELEMENT_SET_NO": 999, "REV_AT_EPOCH": 88251, "BSTAR": 0.0027316707, "MEAN_MOTION_DOT": 0.00014589, "MEAN_MOTION_DDOT": 0}, "tle": {"line1": "1 34077U 97051CL  25341.16224426  .00014589  00000+0  27317-2 0  9993", "line2": "2 34077  86.3866  53.9641 0010723  57.0642 324.3195 14.64710205882516"}}, "geometry": {"type": "Point", "coordinates": [-126.68670418177315, 4.8492427822980195]}}, {"type": "Feature", "properties": {"norad_id": 34079, "name": "IRIDIUM 33 DEB", "group": "iridium-33-debris", "lat": -25.25197990676551, "lon": -167.44424679035276, "alt_km": 628.9150241255193, "timestamp": "2025-12-07T22:37:43.466301+00:00", "meta": {"OBJECT_NAME": "IRIDIUM 33 DEB", "OBJECT_ID": "1997-051CN", "EPOCH": "2025-12-07T02:22:48.351936", "MEAN_MOTION": 14.83309464, "ECCENTRICITY": 0.00062689, "INCLINATION": 86.377, "RA_OF_ASC_NODE": 11.2267, "ARG_OF_PERICENTER": 26.0666, "MEAN_ANOMALY": 356.8012, "EPHEMERIS_TYPE": 0, "CLASSIFICATION_TYPE": "U", "NORAD_CAT_ID": 34079, "ELEMENT_SET_NO": 999, "REV_AT_EPOCH": 88894, "BSTAR": 0.0024974802, "MEAN_MOTION_DOT": 0.00020511, "MEAN_MOTION_DDOT": 0}, "tle": {"line1": "1 34079U 97051CN  25341.09917074  .00020511  00000+0  24975-2 0  9994", "line2": "2 34079  86.3770  11.2267 0006268  26.0666 356.8012 14.83309464888947"}}, "geometry": {"type": "Point", "coordinates": [-167.44424679035276, -25.25197990676551]}}, {"type": "Feature", "properties": {"norad_id": 34088, "name": "IRIDIUM 33 DEB", "group": "iridium-33-debris", "lat": 17.420546408240305, "lon": -148.20881070298057, "alt_km": 592.1906474215566, "timestamp": "2025-12-07T22:37:43.466311+00:00", "meta": {"OBJECT_NAME": "IRIDIUM 33 DEB", "OBJECT_ID": "1997-051CX", "EPOCH": "2025-12-06T22:31:14.068992", "MEAN_MOTION": 14.90964191, "ECCENTRICITY": 0.00052577, "INCLINATION": 86.3849, "RA_OF_ASC_NODE": 33.389, "ARG_OF_PERICENTER": 198.2241, "MEAN_ANOMALY": 336.0244, "EPHEMERIS_TYPE": 0, "CLASSIFICATION_TYPE": "U", "NORAD_CAT_ID": 34088, "ELEMENT_SET_NO": 999, "REV_AT_EPOCH": 88655, "BSTAR": 0.0039064328, "MEAN_MOTION_DOT": 0.00038774, "MEAN_MOTION_DDOT": 0}, "tle": {"line1": "1 34088U 97051CX  25340.93835728  .00038774  00000+0  39064-2 0  9996", "line2": "2 34088  86.3849  33.3890 0005257 198.2241 336.0244 14.90964191886553"}}, "geometry": {"type": "Point", "coordinates": [-148.20881070298057, 17.420546408240305]}}, {"type": "Feature", "properties": {"norad_id": 34091, "name": "IRIDIUM 33 DEB", "group": "iridium-33-debris", "lat": 25.267484139045354, "lon": -112.70019239729734, "alt_km": 645.7808158061507, "timestamp": "2025-12-07T22:37:43.466322+00:00", "meta": {"OBJECT_NAME": "IRIDIUM 33 DEB", "OBJECT_ID": "1997-051DA", "EPOCH": "2025-12-07T05:43:03.828000", "MEAN_MOTION": 14.81184978, "ECCENTRICITY": 0.00330049, "INCLINATION": 86.342, "RA_OF_ASC_NODE": 69.3525, "ARG_OF_PERICENTER": 313.1267, "MEAN_ANOMALY": 46.7195, "EPHEMERIS_TYPE": 0, "CLASSIFICATION_TYPE": "U", "NORAD_CAT_ID": 34091, "ELEMENT_SET_NO": 999, "REV_AT_EPOCH": 87785, "BSTAR": 0.0076006006, "MEAN_MOTION_DOT": 0.00060142, "MEAN_MOTION_DDOT": 0}, "tle": {"line1": "1 34091U 97051DA  25341.23823875  .00060142  00000+0  76006-2 0  9995", "line2": "2 34091  86.3420  69.3525 0033004 313.1267  46.7195 14.81184978877853"}}, "geometry": {"type": "Point", "coordinates": [-112.70019239729734, 25.267484139045354]}}, {"type": "Feature", "properties": {"norad_id": 34097, "name": "IRIDIUM 33 DEB", "group": "iridium-33-debris", "lat": 49.226102470180805, "lon": 179.10469956234698, "alt_km": 794.2541991896342, "timestamp": "2025-12-07T22:37:43.466333+00:00", "meta": {"OBJECT_NAME": "IRIDIUM 33 DEB", "OBJECT_ID": "1997-051DG", "EPOCH": "2025-12-07T00:16:03.805824", "MEAN_MOTION": 14.3470981, "ECCENTRICITY": 0.00832478, "INCLINATION": 86.1998, "RA_OF_ASC_NODE": 3.9361, "ARG_OF_PERICENTER": 20.8098, "MEAN_ANOMALY": 339.6453, "EPHEMERIS_TYPE": 0, "CLASSIFICATION_TYPE": "U", "NORAD_CAT_ID": 34097, "ELEMENT_SET_NO": 999, "REV_AT_EPOCH": 87037, "BSTAR": 0.0021305207, "MEAN_MOTION_DOT": 6.291e-05, "MEAN_MOTION_DDOT": 0}, "tle": {"line1": "1 34097U 97051DG  25341.01115516  .00006291  00000+0  21305-2 0  9990", "line2": "2 34097  86.1998   3.9361 0083247  20.8098 339.6453 14.34709810870374"}}, "geometry": {"type": "Point", "coordinates": [179.10469956234698, 49.226102470180805]}}, {"type": "Feature", "properties": {"norad_id": 34145, "name": "IRIDIUM 33 DEB", "group": "iridium-33-debris", "lat": -86.18518687617035, "lon": -121.70359637784631, "alt_km": 795.8900711271972, "timestamp": "2025-12-07T22:37:43.466344+00:00", "meta": {"OBJECT_NAME": "IRIDIUM 33 DEB", "OBJECT_ID": "1997-051DY", "EPOCH": "2025-12-06T23:44:21.212160", "MEAN_MOTION": 14.42227143, "ECCENTRICITY": 0.00555175, "INCLINATION": 86.2111, "RA_OF_ASC_NODE": 335.0873, "ARG_OF_PERICENTER": 112.1004, "MEAN_ANOMALY": 248.6104, "EPHEMERIS_TYPE": 0, "CLASSIFICATION_TYPE": "U", "NORAD_CAT_ID": 34145, "ELEMENT_SET_NO": 999, "REV_AT_EPOCH": 87555, "BSTAR": 0.0016428415, "MEAN_MOTION_DOT": 5.534e-05, "MEAN_MOTION_DDOT": 0}, "tle": {"line1": "1 34145U 97051DY  25340.98913440  .00005534  00000+0  16428-2 0  9990", "line2": "2 34145  86.2111 335.0873 0055517 112.1004 248.6104 14.42227143875554"}}, "geometry": {"type": "Point", "coordinates": [-121.70359637784631, -86.18518687617035]}}, {"type": "Feature", "properties": {"norad_id": 34146, "name": "IRIDIUM 33 DEB", "group": "iridium-33-debris", "lat": 29.66802422949189, "lon": 169.79745448742216, "alt_km": 727.0961816899762, "timestamp": "2025-12-07T22:37:43.466354+00:00", "meta": {"OBJECT_NAME": "IRIDIUM 33 DEB", "OBJECT_ID": "1997-051DZ", "EPOCH": "2025-12-07T07:05:35.066400", "MEAN_MOTION": 14.48992065, "ECCENTRICITY": 0.00250964, "INCLINATION": 86.2832, "RA_OF_ASC_NODE": 352.2054, "ARG_OF_PERICENTER": 241.082, "MEAN_ANOMALY": 134.8625, "EPHEMERIS_TYPE": 0, "CLASSIFICATION_TYPE": "U", "NORAD_CAT_ID": 34146, "ELEMENT_SET_NO": 999, "REV_AT_EPOCH": 88028, "BSTAR": 0.0015620936, "MEAN_MOTION_DOT": 5.964e-05, "MEAN_MOTION_DDOT": 0}, "tle": {"line1": "1 34146U 97051DZ  25341.29554475  .00005964  00000+0  15621-2 0  9996", "line2": "2 34146  86.2832 352.2054 0025096 241.0820 134.8625 14.48992065880282"}}, "geometry": {"type": "Point", "coordinates": [169.79745448742216, 29.66802422949189]}}, {"type": "Feature", "properties": {"norad_id": 34159, "name": "IRIDIUM 33 DEB", "group": "iridium-33-debris", "lat": 47.10020748191301, "lon": 54.22398812139783, "alt_km": 763.4279281307581, "timestamp": "2025-12-07T22:37:43.466365+00:00", "meta": {"OBJECT_NAME": "IRIDIUM 33 DEB", "OBJECT_ID": "1997-051EN", "EPOCH": "2025-12-07T04:02:44.779776", "MEAN_MOTION": 14.3847292, "ECCENTRICITY": 0.00261399, "INCLINATION": 86.3518, "RA_OF_ASC_NODE": 50.617, "ARG_OF_PERICENTER": 307.4313, "MEAN_ANOMALY": 52.4506, "EPHEMERIS_TYPE": 0, "CLASSIFICATION_TYPE": "U", "NORAD_CAT_ID": 34159, "ELEMENT_SET_NO": 999, "REV_AT_EPOCH": 87879, "BSTAR": 0.00071185552, "MEAN_MOTION_DOT": 2.2e-05, "MEAN_MOTION_DDOT": 0}, "tle": {"line1": "1 34159U 97051EN  25341.16857384  .00002200  00000+0  71186-3 0  9990", "line2": "2 34159  86.3518  50.6170 0026139 307.4313  52.4506 14.38472920878797"}}, "geometry": {"type": "Point", "coordinates": [54.22398812139783, 47.10020748191301]}}, {"type": "Feature", "properties": {"norad_id": 34350, "name": "IRIDIUM 33 DEB", "group": "iridium-33-debris", "lat": -43.01232707863126, "lon": 1.4543792730026628, "alt_km": 762.9752856691648, "timestamp": "2025-12-07T22:37:43.466376+00:00", "meta": {"OBJECT_NAME": "IRIDIUM 33 DEB", "OBJECT_ID": "1997-051ES", "EPOCH": "2025-12-07T07:57:58.605120", "MEAN_MOTION": 14.45368778, "ECCENTRICITY": 0.00222637, "INCLINATION": 86.328, "RA_OF_ASC_NODE": 5.154, "ARG_OF_PERICENTER": 152.1514, "MEAN_ANOMALY": 227.8879, "EPHEMERIS_TYPE": 0, "CLASSIFICATION_TYPE": "U", "NORAD_CAT_ID": 34350, "ELEMENT_SET_NO": 999, "REV_AT_EPOCH": 88215, "BSTAR": 0.00056959331, "MEAN_MOTION_DOT": 2.027e-05, "MEAN_MOTION_DDOT": 0}, "tle": {"line1": "1 34350U 97051ES  25341.33192830  .00002027  00000+0  56959-3 0  9998", "line2": "2 34350  86.3280   5.1540 0022263 152.1514 227.8879 14.45368778882153"}}, "geometry": {"type": "Point", "coordinates": [1.4543792730026628, -43.01232707863126]}}, {"type": "Feature", "properties": {"norad_id": 34366, "name": "IRIDIUM 33 DEB", "group": "iridium-33-debris", "lat": 44.10398867175913, "lon": -132.12789498397018, "alt_km": 694.2585695885846, "timestamp": "2025-12-07T22:37:43.466387+00:00", "meta": {"OBJECT_NAME": "IRIDIUM 33 DEB", "OBJECT_ID": "1997-051FJ", "EPOCH": "2025-12-07T03:58:16.987296", "MEAN_MOTION": 14.53982148, "ECCENTRICITY": 0.00220188, "INCLINATION": 86.3702, "RA_OF_ASC_NODE": 51.7373, "ARG_OF_PERICENTER": 157.5726, "MEAN_ANOMALY": 231.6966, "EPHEMERIS_TYPE": 0, "CLASSIFICATION_TYPE": "U", "NORAD_CAT_ID": 34366, "ELEMENT_SET_NO": 999, "REV_AT_EPOCH": 88101, "BSTAR": 0.0018306625, "MEAN_MOTION_DOT": 7.759e-05, "MEAN_MOTION_DDOT": 0}, "tle": {"line1": "1 34366U 97051FJ  25341.16547439  .00007759  00000+0  18307-2 0  9996", "line2": "2 34366  86.3702  51.7373 0022018 157.5726 231.6966 14.53982148881018"}}, "geometry": {"type": "Point", "coordinates": [-132.12789498397018, 44.10398867175913]}}]}